{
  "type": "FeatureCollection",
  "features": [
    {
      "type": "Feature",
      "properties": {
        "name": "Sample plot A (fictional)"
      },
      "geometry": {
        "type": "Polygon",
        "coordinates": [
          [
            [
              94.1052,
              25.6712
            ],
            [
              94.1071,
              25.6716
            ],
            [
              94.1079,
              25.6703
            ],
            [
              94.1068,
              25.6691
            ],
            [
              94.1049,
              25.6697
            ],
            [
              94.1052,
              25.6712
            ]
          ]
        ]
      }
    }
  ]
}